ONEWEB-0124             
1 47270U 20100N   25251.19515654  .00000415  00000+0  11183-2 0  9999
2 47270  87.8893  46.7134 0001739  88.0806 272.0522 13.12442747227589
ONEWEB-0125             
1 47271U 20100P   25251.17243569  .00000002  00000+0 -28576-4 0  9990
2 47271  87.8891  46.6809 0001962  91.2412 268.8942 13.12444596227643
ONEWEB-0126             
1 47272U 20100Q   25251.19365848  .00000500  00000+0  13545-2 0  9998
2 47272  87.8900  46.6976 0001678  96.6409 263.4910 13.12441632227711
ONEWEB-0127             
1 47273U 20100R   25251.15945513 -.00000380  00000+0 -10921-2 0  9991
2 47273  87.8894  46.7174 0001603  98.3152 261.8158 13.12443770227730
ONEWEB-0128             
1 47274U 20100S   25251.18217283  .00000252  00000+0  66547-3 0  9993
2 47274  87.8886  46.7370 0001447  92.2524 267.8771 13.12444067227751
ONEWEB-0129             
1 47275U 20100T   25251.16108061 -.00000406  00000+0 -11638-2 0  9998
2 47275  87.8893  46.6854 0001774 134.2695 225.8580 13.12443380227686
ONEWEB-0130             
1 47276U 20100U   25251.18866214  .00000435  00000+0  11725-2 0  9999
2 47276  87.8889  46.6773 0001574  94.6894 265.4414 13.12444148227656
ONEWEB-0131             
1 47277U 20100V   25251.18542814  .00000368  00000+0  98774-3 0  9992
2 47277  87.8892  46.7075 0001624  93.1957 266.9358 13.12443694227699
ONEWEB-0132             
1 47278U 20100W   25251.13837755 -.00000067  00000+0 -22207-3 0  9995
2 47278  87.8891  46.7188 0001780  87.1488 272.9844 13.12442193227587
ONEWEB-0133             
1 47279U 20100X   25251.15444369 -.00000419  00000+0 -12010-2 0  9994
2 47279  87.8879  46.6859 0001574  90.3384 269.7925 13.12444091227741
ONEWEB-0134             
1 47280U 20100Y   25251.20001943  .00000432  00000+0  11667-2 0  9999
2 47280  87.8892  46.6632 0001421  95.9586 264.1704 13.12442522227722
ONEWEB-0135             
1 47281U 20100Z   25251.17081492 -.00000094  00000+0 -29693-3 0  9998
2 47281  87.8893  46.7095 0001242  91.1118 269.0153 13.12443260227742
ONEWEB-0136             
1 47282U 20100AA  25251.19028288  .00000419  00000+0  11296-2 0  9993
2 47282  87.8892  46.6741 0001293 102.5698 257.5575 13.12443210227672
ONEWEB-0137             
1 47283U 20100AB  25251.14810265 -.00000348  00000+0 -10040-2 0  9992
2 47283  87.8891  46.6883 0001844  98.3372 261.7966 13.12443614227570
ONEWEB-0138             
1 47284U 20100AC  25251.12702706  .00000392  00000+0  10530-2 0  9992
2 47284  87.8891  46.7024 0001588  96.3008 263.8302 13.12442131227657
ONEWEB-0139             
1 47285U 20100AD  25251.16610093 -.00000230  00000+0 -67335-3 0  9993
2 47285  87.8884  46.6862 0001683  94.5877 265.5443 13.12444124227737
ONEWEB-0140             
1 47286U 20100AE  25250.96806693  .00000399  00000+0  10730-2 0  9994
2 47286  87.8888  46.7096 0001584  95.9437 264.1872 13.12441822227675
