[{"OBJECT_NAME":"ONEWEB-0124","OBJECT_ID":"2020-100N","EPOCH":"2025-09-08T04:41:01.525056","MEAN_MOTION":13.12442747,"ECCENTRICITY":0.0001739,"INCLINATION":87.8893,"RA_OF_ASC_NODE":46.7134,"ARG_OF_PERICENTER":88.0806,"MEAN_ANOMALY":272.0522,"EPHEMERIS_TYPE":0,"CLASSIFICATION_TYPE":"U","NORAD_CAT_ID":47270,"ELEMENT_SET_NO":999,"REV_AT_EPOCH":22758,"BSTAR":0.0011183425,"MEAN_MOTION_DOT":4.15e-6,"MEAN_MOTION_DDOT":0},{"OBJECT_NAME":"ONEWEB-0125","OBJECT_ID":"2020-100P","EPOCH":"2025-09-08T04:08:18.443616","MEAN_MOTION":13.12444596,"ECCENTRICITY":0.00019629,"INCLINATION":87.8891,"RA_OF_ASC_NODE":46.6809,"ARG_OF_PERICENTER":91.2412,"MEAN_ANOMALY":268.8942,"EPHEMERIS_TYPE":0,"CLASSIFICATION_TYPE":"U","NORAD_CAT_ID":47271,"ELEMENT_SET_NO":999,"REV_AT_EPOCH":22764,"BSTAR":-2.8576416e-5,"MEAN_MOTION_DOT":2.0e-8,"MEAN_MOTION_DDOT":0},{"OBJECT_NAME":"ONEWEB-0126","OBJECT_ID":"2020-100Q","EPOCH":"2025-09-08T04:38:52.092672","MEAN_MOTION":13.12441632,"ECCENTRICITY":0.00016783,"INCLINATION":87.89,"RA_OF_ASC_NODE":46.6976,"ARG_OF_PERICENTER":96.6409,"MEAN_ANOMALY":263.491,"EPHEMERIS_TYPE":0,"CLASSIFICATION_TYPE":"U","NORAD_CAT_ID":47272,"ELEMENT_SET_NO":999,"REV_AT_EPOCH":22771,"BSTAR":0.0013545331,"MEAN_MOTION_DOT":5.0e-6,"MEAN_MOTION_DDOT":0},{"OBJECT_NAME":"ONEWEB-0127","OBJECT_ID":"2020-100R","EPOCH":"2025-09-08T03:49:36.923232","MEAN_MOTION":13.1244377,"ECCENTRICITY":0.0001603,"INCLINATION":87.8894,"RA_OF_ASC_NODE":46.7174,"ARG_OF_PERICENTER":98.3152,"MEAN_ANOMALY":261.8158,"EPHEMERIS_TYPE":0,"CLASSIFICATION_TYPE":"U","NORAD_CAT_ID":47273,"ELEMENT_SET_NO":999,"REV_AT_EPOCH":22773,"BSTAR":-0.0010920558,"MEAN_MOTION_DOT":-3.8e-6,"MEAN_MOTION_DDOT":0},{"OBJECT_NAME":"ONEWEB-0128","OBJECT_ID":"2020-100S","EPOCH":"2025-09-08T04:22:19.732512","MEAN_MOTION":13.12444067,"ECCENTRICITY":0.00014474,"INCLINATION":87.8886,"RA_OF_ASC_NODE":46.737,"ARG_OF_PERICENTER":92.2524,"MEAN_ANOMALY":267.8771,"EPHEMERIS_TYPE":0,"CLASSIFICATION_TYPE":"U","NORAD_CAT_ID":47274,"ELEMENT_SET_NO":999,"REV_AT_EPOCH":22775,"BSTAR":0.00066547162,"MEAN_MOTION_DOT":2.52e-6,"MEAN_MOTION_DDOT":0},{"OBJECT_NAME":"ONEWEB-0129","OBJECT_ID":"2020-100T","EPOCH":"2025-09-08T03:51:57.364704","MEAN_MOTION":13.1244338,"ECCENTRICITY":0.00017745,"INCLINATION":87.8893,"RA_OF_ASC_NODE":46.6854,"ARG_OF_PERICENTER":134.2695,"MEAN_ANOMALY":225.858,"EPHEMERIS_TYPE":0,"CLASSIFICATION_TYPE":"U","NORAD_CAT_ID":47275,"ELEMENT_SET_NO":999,"REV_AT_EPOCH":22768,"BSTAR":-0.0011637867,"MEAN_MOTION_DOT":-4.06e-6,"MEAN_MOTION_DDOT":0},{"OBJECT_NAME":"ONEWEB-0130","OBJECT_ID":"2020-100U","EPOCH":"2025-09-08T04:31:40.408896","MEAN_MOTION":13.12444148,"ECCENTRICITY":0.00015743,"INCLINATION":87.8889,"RA_OF_ASC_NODE":46.6773,"ARG_OF_PERICENTER":94.6894,"MEAN_ANOMALY":265.4414,"EPHEMERIS_TYPE":0,"CLASSIFICATION_TYPE":"U","NORAD_CAT_ID":47276,"ELEMENT_SET_NO":999,"REV_AT_EPOCH":22765,"BSTAR":0.0011724882,"MEAN_MOTION_DOT":4.35e-6,"MEAN_MOTION_DDOT":0},{"OBJECT_NAME":"ONEWEB-0131","OBJECT_ID":"2020-100V","EPOCH":"2025-09-08T04:27:00.991296","MEAN_MOTION":13.12443694,"ECCENTRICITY":0.00016245,"INCLINATION":87.8892,"RA_OF_ASC_NODE":46.7075,"ARG_OF_PERICENTER":93.1957,"MEAN_ANOMALY":266.9358,"EPHEMERIS_TYPE":0,"CLASSIFICATION_TYPE":"U","NORAD_CAT_ID":47277,"ELEMENT_SET_NO":999,"REV_AT_EPOCH":22769,"BSTAR":0.0009877389,"MEAN_MOTION_DOT":3.68e-6,"MEAN_MOTION_DDOT":0},{"OBJECT_NAME":"ONEWEB-0132","OBJECT_ID":"2020-100W","EPOCH":"2025-09-08T03:19:15.820320","MEAN_MOTION":13.12442193,"ECCENTRICITY":0.00017808,"INCLINATION":87.8891,"RA_OF_ASC_NODE":46.7188,"ARG_OF_PERICENTER":87.1488,"MEAN_ANOMALY":272.9844,"EPHEMERIS_TYPE":0,"CLASSIFICATION_TYPE":"U","NORAD_CAT_ID":47278,"ELEMENT_SET_NO":999,"REV_AT_EPOCH":22758,"BSTAR":-0.00022207486,"MEAN_MOTION_DOT":-6.7e-7,"MEAN_MOTION_DDOT":0},{"OBJECT_NAME":"ONEWEB-0133","OBJECT_ID":"2020-100X","EPOCH":"2025-09-08T03:42:23.934816","MEAN_MOTION":13.12444091,"ECCENTRICITY":0.00015744,"INCLINATION":87.8879,"RA_OF_ASC_NODE":46.6859,"ARG_OF_PERICENTER":90.3384,"MEAN_ANOMALY":269.7925,"EPHEMERIS_TYPE":0,"CLASSIFICATION_TYPE":"U","NORAD_CAT_ID":47279,"ELEMENT_SET_NO":999,"REV_AT_EPOCH":22774,"BSTAR":-0.0012010339,"MEAN_MOTION_DOT":-4.19e-6,"MEAN_MOTION_DDOT":0},{"OBJECT_NAME":"ONEWEB-0134","OBJECT_ID":"2020-100Y","EPOCH":"2025-09-08T04:48:01.678752","MEAN_MOTION":13.12442522,"ECCENTRICITY":0.00014211,"INCLINATION":87.8892,"RA_OF_ASC_NODE":46.6632,"ARG_OF_PERICENTER":95.9586,"MEAN_ANOMALY":264.1704,"EPHEMERIS_TYPE":0,"CLASSIFICATION_TYPE":"U","NORAD_CAT_ID":47280,"ELEMENT_SET_NO":999,"REV_AT_EPOCH":22772,"BSTAR":0.0011667097,"MEAN_MOTION_DOT":4.32e-6,"MEAN_MOTION_DDOT":0},{"OBJECT_NAME":"ONEWEB-0135","OBJECT_ID":"2020-100Z","EPOCH":"2025-09-08T04:05:58.409088","MEAN_MOTION":13.1244326,"ECCENTRICITY":0.00012427,"INCLINATION":87.8893,"RA_OF_ASC_NODE":46.7095,"ARG_OF_PERICENTER":91.1118,"MEAN_ANOMALY":269.0153,"EPHEMERIS_TYPE":0,"CLASSIFICATION_TYPE":"U","NORAD_CAT_ID":47281,"ELEMENT_SET_NO":999,"REV_AT_EPOCH":22774,"BSTAR":-0.00029692882,"MEAN_MOTION_DOT":-9.4e-7,"MEAN_MOTION_DDOT":0},{"OBJECT_NAME":"ONEWEB-0136","OBJECT_ID":"2020-100AA","EPOCH":"2025-09-08T04:34:00.440832","MEAN_MOTION":13.1244321,"ECCENTRICITY":0.00012935,"INCLINATION":87.8892,"RA_OF_ASC_NODE":46.6741,"ARG_OF_PERICENTER":102.5698,"MEAN_ANOMALY":257.5575,"EPHEMERIS_TYPE":0,"CLASSIFICATION_TYPE":"U","NORAD_CAT_ID":47282,"ELEMENT_SET_NO":999,"REV_AT_EPOCH":22767,"BSTAR":0.0011295988,"MEAN_MOTION_DOT":4.19e-6,"MEAN_MOTION_DDOT":0},{"OBJECT_NAME":"ONEWEB-0137","OBJECT_ID":"2020-100AB","EPOCH":"2025-09-08T03:33:16.068960","MEAN_MOTION":13.12443614,"ECCENTRICITY":0.00018448,"INCLINATION":87.8891,"RA_OF_ASC_NODE":46.6883,"ARG_OF_PERICENTER":98.3372,"MEAN_ANOMALY":261.7966,"EPHEMERIS_TYPE":0,"CLASSIFICATION_TYPE":"U","NORAD_CAT_ID":47283,"ELEMENT_SET_NO":999,"REV_AT_EPOCH":22757,"BSTAR":-0.0010039655,"MEAN_MOTION_DOT":-3.48e-6,"MEAN_MOTION_DDOT":0},{"OBJECT_NAME":"ONEWEB-0138","OBJECT_ID":"2020-100AC","EPOCH":"2025-09-08T03:02:55.137984","MEAN_MOTION":13.12442131,"ECCENTRICITY":0.00015889,"INCLINATION":87.8891,"RA_OF_ASC_NODE":46.7024,"ARG_OF_PERICENTER":96.3008,"MEAN_ANOMALY":263.8302,"EPHEMERIS_TYPE":0,"CLASSIFICATION_TYPE":"U","NORAD_CAT_ID":47284,"ELEMENT_SET_NO":999,"REV_AT_EPOCH":22765,"BSTAR":0.0010530376,"MEAN_MOTION_DOT":3.92e-6,"MEAN_MOTION_DDOT":0},{"OBJECT_NAME":"ONEWEB-0139","OBJECT_ID":"2020-100AD","EPOCH":"2025-09-08T03:59:11.120352","MEAN_MOTION":13.12444124,"ECCENTRICITY":0.00016837,"INCLINATION":87.8884,"RA_OF_ASC_NODE":46.6862,"ARG_OF_PERICENTER":94.5877,"MEAN_ANOMALY":265.5443,"EPHEMERIS_TYPE":0,"CLASSIFICATION_TYPE":"U","NORAD_CAT_ID":47285,"ELEMENT_SET_NO":999,"REV_AT_EPOCH":22773,"BSTAR":-0.00067335028,"MEAN_MOTION_DOT":-2.3e-6,"MEAN_MOTION_DDOT":0},{"OBJECT_NAME":"ONEWEB-0140","OBJECT_ID":"2020-100AE","EPOCH":"2025-09-07T23:14:00.982752","MEAN_MOTION":13.12441822,"ECCENTRICITY":0.00015845,"INCLINATION":87.8888,"RA_OF_ASC_NODE":46.7096,"ARG_OF_PERICENTER":95.9437,"MEAN_ANOMALY":264.1872,"EPHEMERIS_TYPE":0,"CLASSIFICATION_TYPE":"U","NORAD_CAT_ID":47286,"ELEMENT_SET_NO":999,"REV_AT_EPOCH":22767,"BSTAR":0.0010730194,"MEAN_MOTION_DOT":3.99e-6,"MEAN_MOTION_DDOT":0}]
